{"type": "FeatureCollection", "features": [ {"type": "Feature", "properties": {"norad_id": 33825, "name": "COSMOS 2251 DEB", "group": "cosmos-2251-debris", "lat": -67.75385351847623, "lon": -14.967143570344751, "alt_km": 649.1652689622324, "timestamp": "2025-12-11T18:59:46.467917+00:00", "meta": {"OBJECT_NAME": "COSMOS 2251 DEB", "OBJECT_ID": "1993-036BS", "EPOCH": "2025-12-11T06:34:16.772736", "MEAN_MOTION": 14.6974429, "ECCENTRICITY": 0.00845047, "INCLINATION": 73.9853, "RA_OF_ASC_NODE": 30.6412, "ARG_OF_PERICENTER": 358.0349, "MEAN_ANOMALY": 70.4594, "EPHEMERIS_TYPE": 0, "CLASSIFICATION_TYPE": "U", "NORAD_CAT_ID": 33825, "ELEMENT_SET_NO": 999, "REV_AT_EPOCH": 88858, "BSTAR": 0.0012777138, "MEAN_MOTION_DOT": 8.024e-05, "MEAN_MOTION_DDOT": 0}, "tle": {"line1": "1 33825U 93036BS  25345.27380524  .00008024  00000+0  12777-2 0  9991", "line2": "2 33825  73.9853  30.6412 0084504 358.0349  70.4594 14.69744290888589"}}, "geometry": {"type": "Point", "coordinates": [-14.967143570344751, -67.75385351847623]}}, {"type": "Feature", "properties": {"norad_id": 33826, "name": "COSMOS 2251 DEB", "group": "cosmos-2251-debris", "lat": -55.16616402210363, "lon": -104.1012886740768, "alt_km": 773.293599370174, "timestamp": "2025-12-11T18:59:46.467928+00:00", "meta": {"OBJECT_NAME": "COSMOS 2251 DEB", "OBJECT_ID": "1993-036BT", "EPOCH": "2025-12-11T06:36:31.776192", "MEAN_MOTION": 14.51699804, "ECCENTRICITY": 0.00833212, "INCLINATION": 74.0649, "RA_OF_ASC_NODE": 52.6285, "ARG_OF_PERICENTER": 97.4812, "MEAN_ANOMALY": 324.151, "EPHEMERIS_TYPE": 0, "CLASSIFICATION_TYPE": "U", "NORAD_CAT_ID": 33826, "ELEMENT_SET_NO": 999, "REV_AT_EPOCH": 87748, "BSTAR": 0.0018564676, "MEAN_MOTION_DOT": 7.777e-05, "MEAN_MOTION_DDOT": 0}, "tle": {"line1": "1 33826U 93036BT  25345.27536778  .00007777  00000+0  18565-2 0  9991", "line2": "2 33826  74.0649  52.6285 0083321  97.4812 324.1510 14.51699804877487"}}, "geometry": {"type": "Point", "coordinates": [-104.1012886740768, -55.16616402210363]}}, {"type": "Feature", "properties": {"norad_id": 33828, "name": "COSMOS 2251 DEB", "group": "cosmos-2251-debris", "lat": 19.511550574317944, "lon": 54.036414883861895, "alt_km": 762.7433014174112, "timestamp": "2025-12-11T18:59:46.467940+00:00", "meta": {"OBJECT_NAME": "COSMOS 2251 DEB", "OBJECT_ID": "1993-036BV", "EPOCH": "2025-12-11T03:52:41.413152", "MEAN_MOTION": 14.44324585, "ECCENTRICITY": 0.00294505, "INCLINATION": 74.0467, "RA_OF_ASC_NODE": 241.0248, "ARG_OF_PERICENTER": 314.1939, "MEAN_ANOMALY": 171.5402, "EPHEMERIS_TYPE": 0, "CLASSIFICATION_TYPE": "U", "NORAD_CAT_ID": 33828, "ELEMENT_SET_NO": 999, "REV_AT_EPOCH": 88290, "BSTAR": 0.00071508352, "MEAN_MOTION_DOT": 2.447e-05, "MEAN_MOTION_DDOT": 0}, "tle": {"line1": "1 33828U 93036BV  25345.16159043  .00002447  00000+0  71508-3 0  9993", "line2": "2 33828  74.0467 241.0248 0029450 314.1939 171.5402 14.44324585882902"}}, "geometry": {"type": "Point", "coordinates": [54.036414883861895, 19.511550574317944]}}, {"type": "Feature", "properties": {"norad_id": 33830, "name": "COSMOS 2251 DEB", "group": "cosmos-2251-debris", "lat": -69.42453851496495, "lon": -177.4823267091133, "alt_km": 635.5137097759416, "timestamp": "2025-12-11T18:59:46.467951+00:00", "meta": {"OBJECT_NAME": "COSMOS 2251 DEB", "OBJECT_ID": "1993-036BX", "EPOCH": "2025-12-11T03:36:31.396032", "MEAN_MOTION": 14.76864504, "ECCENTRICITY": 0.0042358, "INCLINATION": 74.0322, "RA_OF_ASC_NODE": 233.4821, "ARG_OF_PERICENTER": 353.9112, "MEAN_ANOMALY": 122.3243, "EPHEMERIS_TYPE": 0, "CLASSIFICATION_TYPE": "U", "NORAD_CAT_ID": 33830, "ELEMENT_SET_NO": 999, "REV_AT_EPOCH": 89448, "BSTAR": 0.0013580545, "MEAN_MOTION_DOT": 9.664e-05, "MEAN_MOTION_DDOT": 0}, "tle": {"line1": "1 33830U 93036BX  25345.15036338  .00009664  00000+0  13581-2 0  9990", "line2": "2 33830  74.0322 233.4821 0042358 353.9112 122.3243 14.76864504894481"}}, "geometry": {"type": "Point", "coordinates": [-177.4823267091133, -69.42453851496495]}}, {"type": "Feature", "properties": {"norad_id": 33832, "name": "COSMOS 2251 DEB", "group": "cosmos-2251-debris", "lat": 28.07313803967064, "lon": -139.44408650442134, "alt_km": 704.2894973816492, "timestamp": "2025-12-11T18:59:46.467963+00:00", "meta": {"OBJECT_NAME": "COSMOS 2251 DEB", "OBJECT_ID": "1993-036BZ", "EPOCH": "2025-12-11T01:21:31.601664", "MEAN_MOTION": 14.60609783, "ECCENTRICITY": 0.00249834, "INCLINATION": 74.0538, "RA_OF_ASC_NODE": 213.186, "ARG_OF_PERICENTER": 244.5959, "MEAN_ANOMALY": 242.0023, "EPHEMERIS_TYPE": 0, "CLASSIFICATION_TYPE": "U", "NORAD_CAT_ID": 33832, "ELEMENT_SET_NO": 999, "REV_AT_EPOCH": 88400, "BSTAR": 0.0019649565, "MEAN_MOTION_DOT": 9.582e-05, "MEAN_MOTION_DDOT": 0}, "tle": {"line1": "1 33832U 93036BZ  25345.05661576  .00009582  00000+0  19650-2 0  9991", "line2": "2 33832  74.0538 213.1860 0024983 244.5959 242.0023 14.60609783884000"}}, "geometry": {"type": "Point", "coordinates": [-139.44408650442134, 28.07313803967064]}}, {"type": "Feature", "properties": {"norad_id": 33835, "name": "COSMOS 2251 DEB", "group": "cosmos-2251-debris", "lat": -37.886274319516225, "lon": -64.22513504937729, "alt_km": 674.1998322099289, "timestamp": "2025-12-11T18:59:46.467974+00:00", "meta": {"OBJECT_NAME": "COSMOS 2251 DEB", "OBJECT_ID": "1993-036CC", "EPOCH": "2025-12-11T02:23:32.254368", "MEAN_MOTION": 14.62220271, "ECCENTRICITY": 0.00548671, "INCLINATION": 74.0571, "RA_OF_ASC_NODE": 104.2461, "ARG_OF_PERICENTER": 158.224, "MEAN_ANOMALY": 20.5091, "EPHEMERIS_TYPE": 0, "CLASSIFICATION_TYPE": "U", "NORAD_CAT_ID": 33835, "ELEMENT_SET_NO": 999, "REV_AT_EPOCH": 88765, "BSTAR": 0.0017578473, "MEAN_MOTION_DOT": 9.031e-05, "MEAN_MOTION_DDOT": 0}, "tle": {"line1": "1 33835U 93036CC  25345.09967887  .00009031  00000+0  17578-2 0  9998", "line2": "2 33835  74.0571 104.2461 0054867 158.2240  20.5091 14.62220271887656"}}, "geometry": {"type": "Point", "coordinates": [-64.22513504937729, -37.886274319516225]}}, {"type": "Feature", "properties": {"norad_id": 33836, "name": "COSMOS 2251 DEB", "group": "cosmos-2251-debris", "lat": -3.734924746065974, "lon": 81.89561192057288, "alt_km": 628.1242062932215, "timestamp": "2025-12-11T18:59:46.467986+00:00", "meta": {"OBJECT_NAME": "COSMOS 2251 DEB", "OBJECT_ID": "1993-036CD", "EPOCH": "2025-12-11T05:54:35.905824", "MEAN_MOTION": 14.79570931, "ECCENTRICITY": 0.00225134, "INCLINATION": 73.9971, "RA_OF_ASC_NODE": 261.8975, "ARG_OF_PERICENTER": 115.7918, "MEAN_ANOMALY": 44.6217, "EPHEMERIS_TYPE": 0, "CLASSIFICATION_TYPE": "U", "NORAD_CAT_ID": 33836, "ELEMENT_SET_NO": 999, "REV_AT_EPOCH": 64066, "BSTAR": 0.0020141884, "MEAN_MOTION_DOT": 0.00015149, "MEAN_MOTION_DDOT": 0}, "tle": {"line1": "1 33836U 93036CD  25345.24624891  .00015149  00000+0  20142-2 0  9999", "line2": "2 33836  73.9971 261.8975 0022513 115.7918  44.6217 14.79570931640666"}}, "geometry": {"type": "Point", "coordinates": [81.89561192057288, -3.734924746065974]}}, {"type": "Feature", "properties": {"norad_id": 33837, "name": "COSMOS 2251 DEB", "group": "cosmos-2251-debris", "lat": -71.700053308969, "lon": -62.52050146737803, "alt_km": 706.1270851541358, "timestamp": "2025-12-11T18:59:46.467998+00:00", "meta": {"OBJECT_NAME": "COSMOS 2251 DEB", "OBJECT_ID": "1993-036CE", "EPOCH": "2025-12-11T06:12:33.101280", "MEAN_MOTION": 14.50697458, "ECCENTRICITY": 0.00358312, "INCLINATION": 74.0131, "RA_OF_ASC_NODE": 58.3863, "ARG_OF_PERICENTER": 280.337, "MEAN_ANOMALY": 79.3752, "EPHEMERIS_TYPE": 0, "CLASSIFICATION_TYPE": "U", "NORAD_CAT_ID": 33837, "ELEMENT_SET_NO": 999, "REV_AT_EPOCH": 88774, "BSTAR": 0.00045155538, "MEAN_MOTION_DOT": 1.761e-05, "MEAN_MOTION_DDOT": 0}, "tle": {"line1": "1 33837U 93036CE  25345.25871645  .00001761  00000+0  45156-3 0  9990", "line2": "2 33837  74.0131  58.3863 0035831 280.3370  79.3752 14.50697458887744"}}, "geometry": {"type": "Point", "coordinates": [-62.52050146737803, -71.700053308969]}}, {"type": "Feature", "properties": {"norad_id": 33838, "name": "COSMOS 2251 DEB", "group": "cosmos-2251-debris", "lat": 36.82328148800337, "lon": -40.78603904897997, "alt_km": 741.1268599556879, "timestamp": "2025-12-11T18:59:46.468009+00:00", "meta": {"OBJECT_NAME": "COSMOS 2251 DEB", "OBJECT_ID": "1993-036CF", "EPOCH": "2025-12-11T05:54:01.867680", "MEAN_MOTION": 14.48356837, "ECCENTRICITY": 0.00274613, "INCLINATION": 74.0364, "RA_OF_ASC_NODE": 152.6111, "ARG_OF_PERICENTER": 274.6993, "MEAN_ANOMALY": 262.9456, "EPHEMERIS_TYPE": 0, "CLASSIFICATION_TYPE": "U", "NORAD_CAT_ID": 33838, "ELEMENT_SET_NO": 999, "REV_AT_EPOCH": 88547, "BSTAR": 0.00071693202, "MEAN_MOTION_DOT": 2.668e-05, "MEAN_MOTION_DDOT": 0}, "tle": {"line1": "1 33838U 93036CF  25345.24585495  .00002668  00000+0  71693-3 0  9997", "line2": "2 33838  74.0364 152.6111 0027461 274.6993 262.9456 14.48356837885473"}}, "geometry": {"type": "Point", "coordinates": [-40.78603904897997, 36.82328148800337]}}, {"type": "Feature", "properties": {"norad_id": 33839, "name": "COSMOS 2251 DEB", "group": "cosmos-2251-debris", "lat": 13.4149794634196, "lon": -147.78331219570686, "alt_km": 643.6536847783555, "timestamp": "2025-12-11T18:59:46.468021+00:00", "meta": {"OBJECT_NAME": "COSMOS 2251 DEB", "OBJECT_ID": "1993-036CG", "EPOCH": "2025-12-11T01:35:09.923712", "MEAN_MOTION": 14.64413203, "ECCENTRICITY": 0.00850717, "INCLINATION": 74.0389, "RA_OF_ASC_NODE": 209.6959, "ARG_OF_PERICENTER": 322.1485, "MEAN_ANOMALY": 188.3731, "EPHEMERIS_TYPE": 0, "CLASSIFICATION_TYPE": "U", "NORAD_CAT_ID": 33839, "ELEMENT_SET_NO": 999, "REV_AT_EPOCH": 89555, "BSTAR": 0.00035805202, "MEAN_MOTION_DOT": 1.963e-05, "MEAN_MOTION_DDOT": 0}, "tle": {"line1": "1 33839U 93036CG  25345.06608708  .00001963  00000+0  35805-3 0  9993", "line2": "2 33839  74.0389 209.6959 0085071 322.1485 188.3731 14.64413203895556"}}, "geometry": {"type": "Point", "coordinates": [-147.78331219570686, 13.4149794634196]}}]}